{
    "links": {
        "self": "http://www.neowsapp.com/rest/v1/neo/3827163?api_key=iIulBulltgU6a56xZRHN4H3l9WmuAYTsLGpBGhQ2"
    },
    "id": "3827163",
    "neo_reference_id": "3827163",
    "name": "(2018 RS)",
    "designation": "2018 RS",
    "nasa_jpl_url": "http://ssd.jpl.nasa.gov/sbdb.cgi?sstr=3827163",
    "absolute_magnitude_h": 30.0,
    "estimated_diameter": {
        "kilometers": {
            "estimated_diameter_min": 0.002658,
            "estimated_diameter_max": 0.0059434687
        },
        "meters": {
            "estimated_diameter_min": 2.658,
            "estimated_diameter_max": 5.9434686842
        },
        "miles": {
            "estimated_diameter_min": 0.0016516041,
            "estimated_diameter_max": 0.0036930991
        },
        "feet": {
            "estimated_diameter_min": 8.72047272,
            "estimated_diameter_max": 19.4995697979
        }
    },
    "is_potentially_hazardous_asteroid": false,
    "close_approach_data": [
        {
            "close_approach_date": "2018-09-05",
            "close_approach_date_full": "2018-Sep-05 15:08",
            "epoch_date_close_approach": 1536160080000,
            "relative_velocity": {
                "kilometers_per_second": "17.94053181",
                "kilometers_per_hour": "64585.9145160493",
                "miles_per_hour": "40131.1756058196"
            },
            "miss_distance": {
                "astronomical": "0.0021951528",
                "lunar": "0.8539144392",
                "kilometers": "328390.183204536",
                "miles": "204052.1978171568"
            },
            "orbiting_body": "Moon"
        },
        {
            "close_approach_date": "2018-09-05",
            "close_approach_date_full": "2018-Sep-05 17:21",
            "epoch_date_close_approach": 1536168060000,
            "relative_velocity": {
                "kilometers_per_second": "17.0670056263",
                "kilometers_per_hour": "61441.2202547898",
                "miles_per_hour": "38177.1848855387"
            },
            "miss_distance": {
                "astronomical": "0.0007098995",
                "lunar": "0.2761509055",
                "kilometers": "106199.453114065",
                "miles": "65989.280201497"
            },
            "orbiting_body": "Earth"
        }
    ],
    "orbital_data": {
        "orbit_id": "1",
        "orbit_determination_date": "2018-09-06 20:52:49",
        "first_observation_date": "2018-09-06",
        "last_observation_date": "2018-09-07",
        "data_arc_in_days": 1,
        "observations_used": 14,
        "orbit_uncertainty": "8",
        "minimum_orbit_intersection": ".000704584",
        "jupiter_tisserand_invariant": "3.612",
        "epoch_osculation": "2458368.5",
        "eccentricity": ".623198090945305",
        "semi_major_axis": "1.961602020037222",
        "inclination": "2.741230624286141",
        "ascending_node_longitude": "342.0064181382837",
        "orbital_period": "1003.493992694639",
        "perihelion_distance": ".7391353859555712",
        "perihelion_argument": "288.6046426863383",
        "aphelion_distance": "3.184068654118872",
        "perihelion_time": "2458321.517695943937",
        "mean_anomaly": "16.85473912481055",
        "mean_motion": ".3587465422023181",
        "equinox": "J2000",
        "orbit_class": {
            "orbit_class_type": "APO",
            "orbit_class_description": "Near-Earth asteroid orbits which cross the Earth’s orbit similar to that of 1862 Apollo",
            "orbit_class_range": "a (semi-major axis) > 1.0 AU; q (perihelion) < 1.017 AU"
        }
    },
    "is_sentry_object": false
}